ORBCOMM FM103           
1 40091U 14040F   24298.55860587  .00002842  00000+0  65901-3 0  9991
2 40091  47.0058  49.9420 0002937 272.5592  87.4957 14.57282423529724
ORBCOMM FM114           
1 41179U 15081A   24298.38251664  .00002156  00000+0  50893-3 0  9998
2 41179  47.0024 319.9699 0002799 331.4157  28.6575 14.57286342470060
ORBCOMM FM119           
1 41180U 15081B   24298.49585892  .00002632  00000+0  61336-3 0  9998
2 41180  46.9994 228.6606 0001063  31.1674 328.9274 14.57260499471339
ORBCOMM FM105           
1 41181U 15081C   24298.44433232  .00001025  00000+0  33765-3 0  9994
2 41181  47.0012 211.2586 0002084 331.1514  28.9250 14.44757241466650
ORBCOMM FM110           
1 41182U 15081D   24298.49602509  .00002856  00000+0  66197-3 0  9993
2 41182  47.0015 318.8193 0000611 184.4828 175.6052 14.57280322469954
ORBCOMM FM118           
1 41183U 15081E   24298.47399459  .00002941  00000+0  68035-3 0  9997
2 41183  47.0041 319.2704 0001006 180.6351 179.4533 14.57292403470057
ORBCOMM FM112           
1 41184U 15081F   24298.19925715  .00003069  00000+0  70903-3 0  9996
2 41184  46.9979 229.2562 0001661  13.5107 346.5822 14.57254403471235
ORBCOMM FM113           
1 41185U 15081G   24298.51928553  .00003028  00000+0  70035-3 0  9997
2 41185  46.9996 228.0402 0001305  39.7333 320.3648 14.57239075471268
